{
  "type": "FeatureCollection",
  "features": [
    {
      "type": "Feature",
      "properties": {
        "norad_id": 66561,
        "name": "STARLINK-35305",
        "group": "last-30-days",
        "lat": 40.90416245678585,
        "lon": 115.27897862345918,
        "alt_km": 418.4929253935152,
        "timestamp": "2025-12-25T09:48:51.002936+00:00",
        "meta_object_name": "STARLINK-35305",
        "meta_object_id": "2025-268E",
        "meta_epoch": "2025-12-25T04:00:01.998720",
        "meta_mean_motion": 15.48564481,
        "meta_eccentricity": 0.0001014,
        "meta_inclination": 43.0005,
        "meta_ra_of_asc_node": 48.3029,
        "meta_arg_of_pericenter": 277.0644,
        "meta_mean_anomaly": 245.2385,
        "meta_ephemeris_type": 0,
        "meta_classification_type": "U",
        "meta_norad_cat_id": 66561,
        "meta_element_set_no": 999,
        "meta_rev_at_epoch": 615,
        "meta_bstar": -0.042168,
        "meta_mean_motion_dot": -0.02050228,
        "meta_mean_motion_ddot": 0,
        "tle_line1": "1 66561U 25268E   25359.16668980 -.02050228  00000+0 -42168-1 0  9997",
        "tle_line2": "2 66561  43.0005  48.3029 0001014 277.0644 245.2385 15.48564481  6157"
      },
      "geometry": {
        "type": "Point",
        "coordinates": [
          115.27897862345918,
          40.90416245678585
        ]
      }
    },
    {
      "type": "Feature",
      "properties": {
        "norad_id": 66562,
        "name": "STARLINK-35579",
        "group": "last-30-days",
        "lat": 38.39275601840928,
        "lon": 105.15790381252718,
        "alt_km": 421.3603553824796,
        "timestamp": "2025-12-25T09:48:51.002947+00:00",
        "meta_object_name": "STARLINK-35579",
        "meta_object_id": "2025-268F",
        "meta_epoch": "2025-12-25T04:00:01.998720",
        "meta_mean_motion": 15.47727108,
        "meta_eccentricity": 0.0001134,
        "meta_inclination": 43.0004,
        "meta_ra_of_asc_node": 48.3211,
        "meta_arg_of_pericenter": 276.2741,
        "meta_mean_anomaly": 238.5733,
        "meta_ephemeris_type": 0,
        "meta_classification_type": "U",
        "meta_norad_cat_id": 66562,
        "meta_element_set_no": 999,
        "meta_rev_at_epoch": 615,
        "meta_bstar": -0.043422,
        "meta_mean_motion_dot": -0.02049795,
        "meta_mean_motion_ddot": 0,
        "tle_line1": "1 66562U 25268F   25359.16668980 -.02049795  00000+0 -43422-1 0  9999",
        "tle_line2": "2 66562  43.0004  48.3211 0001134 276.2741 238.5733 15.47727108  6150"
      },
      "geometry": {
        "type": "Point",
        "coordinates": [
          105.15790381252718,
          38.39275601840928
        ]
      }
    },
    {
      "type": "Feature",
      "properties": {
        "norad_id": 66563,
        "name": "STARLINK-35437",
        "group": "last-30-days",
        "lat": 42.391965102210534,
        "lon": 125.28703044235898,
        "alt_km": 415.78923948837473,
        "timestamp": "2025-12-25T09:48:51.002958+00:00",
        "meta_object_name": "STARLINK-35437",
        "meta_object_id": "2025-268G",
        "meta_epoch": "2025-12-25T04:00:01.998720",
        "meta_mean_motion": 15.49379693,
        "meta_eccentricity": 8.14e-05,
        "meta_inclination": 43.0001,
        "meta_ra_of_asc_node": 48.2857,
        "meta_arg_of_pericenter": 265.2831,
        "meta_mean_anomaly": 263.9321,
        "meta_ephemeris_type": 0,
        "meta_classification_type": "U",
        "meta_norad_cat_id": 66563,
        "meta_element_set_no": 999,
        "meta_rev_at_epoch": 605,
        "meta_bstar": -0.040481,
        "meta_mean_motion_dot": -0.02028545,
        "meta_mean_motion_ddot": 0,
        "tle_line1": "1 66563U 25268G   25359.16668980 -.02028545  00000+0 -40481-1 0  9992",
        "tle_line2": "2 66563  43.0001  48.2857 0000814 265.2831 263.9321 15.49379693  6053"
      },
      "geometry": {
        "type": "Point",
        "coordinates": [
          125.28703044235898,
          42.391965102210534
        ]
      }
    },
    {
      "type": "Feature",
      "properties": {
        "norad_id": 66564,
        "name": "STARLINK-35358",
        "group": "last-30-days",
        "lat": 42.962898133686984,
        "lon": 134.86813801027247,
        "alt_km": 413.35092968312256,
        "timestamp": "2025-12-25T09:48:51.002972+00:00",
        "meta_object_name": "STARLINK-35358",
        "meta_object_id": "2025-268H",
        "meta_epoch": "2025-12-25T04:00:01.998720",
        "meta_mean_motion": 15.50243426,
        "meta_eccentricity": 0.0001005,
        "meta_inclination": 43.0005,
        "meta_ra_of_asc_node": 48.2702,
        "meta_arg_of_pericenter": 272.8027,
        "meta_mean_anomaly": 262.7275,
        "meta_ephemeris_type": 0,
        "meta_classification_type": "U",
        "meta_norad_cat_id": 66564,
        "meta_element_set_no": 999,
        "meta_rev_at_epoch": 615,
        "meta_bstar": -0.039882,
        "meta_mean_motion_dot": -0.02057737,
        "meta_mean_motion_ddot": 0,
        "tle_line1": "1 66564U 25268H   25359.16668980 -.02057737  00000+0 -39882-1 0  9991",
        "tle_line2": "2 66564  43.0005  48.2702 0001005 272.8027 262.7275 15.50243426  6153"
      },
      "geometry": {
        "type": "Point",
        "coordinates": [
          134.86813801027247,
          42.962898133686984
        ]
      }
    },
    {
      "type": "Feature",
      "properties": {
        "norad_id": 66565,
        "name": "STARLINK-35893",
        "group": "last-30-days",
        "lat": 42.77250943158247,
        "lon": 143.7345974968159,
        "alt_km": 410.86334838829316,
        "timestamp": "2025-12-25T09:48:51.002983+00:00",
        "meta_object_name": "STARLINK-35893",
        "meta_object_id": "2025-268J",
        "meta_epoch": "2025-12-25T04:00:01.998720",
        "meta_mean_motion": 15.51080177,
        "meta_eccentricity": 9.16e-05,
        "meta_inclination": 43.0004,
        "meta_ra_of_asc_node": 48.2552,
        "meta_arg_of_pericenter": 271.9153,
        "meta_mean_anomaly": 269.3888,
        "meta_ephemeris_type": 0,
        "meta_classification_type": "U",
        "meta_norad_cat_id": 66565,
        "meta_element_set_no": 999,
        "meta_rev_at_epoch": 615,
        "meta_bstar": -0.038664,
        "meta_mean_motion_dot": -0.02055963,
        "meta_mean_motion_ddot": 0,
        "tle_line1": "1 66565U 25268J   25359.16668980 -.02055963  00000+0 -38664-1 0  9998",
        "tle_line2": "2 66565  43.0004  48.2552 0000916 271.9153 269.3888 15.51080177  6152"
      },
      "geometry": {
        "type": "Point",
        "coordinates": [
          143.7345974968159,
          42.77250943158247
        ]
      }
    },
    {
      "type": "Feature",
      "properties": {
        "norad_id": 66566,
        "name": "STARLINK-35871",
        "group": "last-30-days",
        "lat": 42.237145697047396,
        "lon": 149.8391963709863,
        "alt_km": 409.4185924151916,
        "timestamp": "2025-12-25T09:48:51.002994+00:00",
        "meta_object_name": "STARLINK-35871",
        "meta_object_id": "2025-268K",
        "meta_epoch": "2025-12-25T04:00:01.998720",
        "meta_mean_motion": 15.51612257,
        "meta_eccentricity": 9.86e-05,
        "meta_inclination": 43.0002,
        "meta_ra_of_asc_node": 48.2452,
        "meta_arg_of_pericenter": 269.7978,
        "meta_mean_anomaly": 275.5765,
        "meta_ephemeris_type": 0,
        "meta_classification_type": "U",
        "meta_norad_cat_id": 66566,
        "meta_element_set_no": 999,
        "meta_rev_at_epoch": 615,
        "meta_bstar": -0.037992,
        "meta_mean_motion_dot": -0.02059134,
        "meta_mean_motion_ddot": 0,
        "tle_line1": "1 66566U 25268K   25359.16668980 -.02059134  00000+0 -37992-1 0  9996",
        "tle_line2": "2 66566  43.0002  48.2452 0000986 269.7978 275.5765 15.51612257  6150"
      },
      "geometry": {
        "type": "Point",
        "coordinates": [
          149.8391963709863,
          42.237145697047396
        ]
      }
    },
    {
      "type": "Feature",
      "properties": {
        "norad_id": 66567,
        "name": "STARLINK-35825",
        "group": "last-30-days",
        "lat": 37.740376607162105,
        "lon": 170.62197120391053,
        "alt_km": 393.35237331000553,
        "timestamp": "2025-12-25T09:48:51.003005+00:00",
        "meta_object_name": "STARLINK-35825",
        "meta_object_id": "2025-268L",
        "meta_epoch": "2025-12-24T05:35:52.806912",
        "meta_mean_motion": 15.56426808,
        "meta_eccentricity": 0.00033868,
        "meta_inclination": 43.0005,
        "meta_ra_of_asc_node": 53.7242,
        "meta_arg_of_pericenter": 293.6521,
        "meta_mean_anomaly": 66.3986,
        "meta_ephemeris_type": 0,
        "meta_classification_type": "U",
        "meta_norad_cat_id": 66567,
        "meta_element_set_no": 999,
        "meta_rev_at_epoch": 641,
        "meta_bstar": 0.0017686293,
        "meta_mean_motion_dot": 0.00130148,
        "meta_mean_motion_ddot": 0,
        "tle_line1": "1 66567U 25268L   25358.23325008  .00130148  00000+0  17686-2 0  9995",
        "tle_line2": "2 66567  43.0005  53.7242 0003386 293.6521  66.3986 15.56426808  6419"
      },
      "geometry": {
        "type": "Point",
        "coordinates": [
          170.62197120391053,
          37.740376607162105
        ]
      }
    }
  ]
}